IRIDIUM 126             
1 42809U 17039G   24142.50905962  .00000404  00000+0  13718-3 0  9992
2 42809  86.3934 309.8601 0002164  83.1320 277.0121 14.34214864361495
IRIDIUM 124             
1 42810U 17039H   24142.37557577  .00001133  00000+0  33078-3 0  9995
2 42810  86.4505 246.6250 0002063  99.5678 260.5756 14.43287446365957
IRIDIUM 128             
1 42811U 17039J   24142.56955005  .00000625  00000+0  21599-3 0  9995
2 42811  86.3965 341.3630 0002002  88.3387 271.8038 14.34224050361538
IRIDIUM 121             
1 42812U 17039K   24142.52808487  .00000363  00000+0  12261-3 0  9998
2 42812  86.3937 309.8752 0002069  89.7082 270.4351 14.34214601361378
IRIDIUM 133             
1 42955U 17061A   24142.60127090  .00000640  00000+0  22128-3 0  9995
2 42955  86.3968 341.4489 0002115  84.1684 275.9753 14.34222273346337
IRIDIUM 100             
1 42956U 17061B   24142.59493413  .00000632  00000+0  21866-3 0  9998
2 42956  86.3965 341.3878 0002128  85.0340 275.1099 14.34223680346337
IRIDIUM 122             
1 42957U 17061C   24142.56320226  .00000613  00000+0  21186-3 0  9991
2 42957  86.3964 341.3993 0002144  87.0528 273.0913 14.34222794346330
IRIDIUM 129             
1 42958U 17061D   24142.58858392  .00000635  00000+0  21952-3 0  9999
2 42958  86.3966 341.4477 0002078  81.7820 278.3611 14.34223491346353
